ONEWEB-0517             
1 54135U 22138Y   23299.58545931  .00000180  00000+0  41666-3 0  9993
2 54135  87.9186 136.9655 0001977  76.4691 283.6662 13.19726873 49600
ONEWEB-0518             
1 54136U 22138Z   23299.60438608  .00000092  00000+0  19699-3 0  9992
2 54136  87.9185 136.9610 0001974  83.1500 276.9857 13.19726637 49601
ONEWEB-0519             
1 54137U 22138AA  23299.55385548  .00000087  00000+0  18464-3 0  9994
2 54137  87.9189 136.9696 0002055  75.6640 284.4721 13.19727518 49605
ONEWEB-0520             
1 54138U 22138AB  23299.58860814  .00000092  00000+0  19757-3 0  9994
2 54138  87.9185 136.9647 0002033  66.0998 294.0348 13.19726441 49598
ONEWEB-0521             
1 54139U 22138AC  23299.54596559  .00000011  00000+0 -52069-5 0  9990
2 54139  87.9186 136.9696 0001932  89.9843 270.1511 13.19724192 49536
ONEWEB-0522             
1 54140U 22138AD  23299.60123609  .00000091  00000+0  19430-3 0  9991
2 54140  87.9185 136.9609 0001634  78.6143 281.5173 13.19726181 49583
ONEWEB-0523             
1 54141U 22138AE  23299.49553494 -.00000144  00000+0 -38559-3 0  9992
2 54141  87.9151 106.4860 0001626 131.8160 228.3112 13.20771709 51965
ONEWEB-0524             
1 54142U 22138AF  23299.55868053  .00000059  00000+0  11238-3 0  9998
2 54142  87.9181 106.4605 0000434 104.6173 255.5008 13.20773855 51975
